start=new Date('2022-02-03T00:00:00.000Z').valueOf();
sats=[{"CENTER_NAME":"EARTH","ARG_OF_PERICENTER":"75.0742","LAUNCH_DATE":"2020-04-22","RCS_SIZE":"LARGE","TLE_LINE2":"2 45548  53.0558 343.0134 0001462  75.0742 285.0408 15.06387955 99004","MEAN_MOTION":"15.06387955","ECCENTRICITY":"0.00014620","MEAN_MOTION_DDOT":"0.0000000000000","COUNTRY_CODE":"US","ELEMENT_SET_NO":"999","APOAPSIS":"548.263","REF_FRAME":"TEME","PERIOD":"95.593","CLASSIFICATION_TYPE":"U","SITE":"AFETR","PERIAPSIS":"546.238","TIME_SYSTEM":"UTC","EPOCH":"2022-02-02T13:26:30.340032","OBJECT_NAME":"STARLINK-1378","OBJECT_ID":"2020-025T","BSTAR":"-0.00006779700000","MEAN_MOTION_DOT":"-0.00001291","MEAN_ANOMALY":"285.0408","RA_OF_ASC_NODE":"343.0134","REV_AT_EPOCH":"9900","MEAN_ELEMENT_THEORY":"SGP4","GP_ID":"195166360","EPHEMERIS_TYPE":"0","NORAD_CAT_ID":"45548","OBJECT_TYPE":"PAYLOAD","SEMIMAJOR_AXIS":"6925.385","INCLINATION":"53.0558","FILE":"3290308","DECAY_DATE":null,"TLE_LINE1":"1 45548U 20025T   22033.56007338 -.00001291  00000-0 -67797-4 0  9992"},{"COUNTRY_CODE":"US","MEAN_MOTION_DDOT":"0.0000000000000","ECCENTRICITY":"0.00009140","MEAN_MOTION":"15.89147145","RCS_SIZE":"LARGE","TLE_LINE2":"2 45549  53.0494 304.8695 0000914 152.2457 207.8617 15.89147145100141","LAUNCH_DATE":"2020-04-22","ARG_OF_PERICENTER":"152.2457","CENTER_NAME":"EARTH","MEAN_ANOMALY":"207.8617","MEAN_MOTION_DOT":"0.00052275","BSTAR":"0.00017947000000","OBJECT_ID":"2020-025U","OBJECT_NAME":"STARLINK-1379","TIME_SYSTEM":"UTC","EPOCH":"2022-02-02T21:10:50.429568","PERIAPSIS":"304.064","SITE":"AFETR","CLASSIFICATION_TYPE":"U","PERIOD":"90.615","REF_FRAME":"TEME","APOAPSIS":"305.286","ELEMENT_SET_NO":"999","NORAD_CAT_ID":"45549","EPHEMERIS_TYPE":"0","GP_ID":"195191262","MEAN_ELEMENT_THEORY":"SGP4","REV_AT_EPOCH":"10014","RA_OF_ASC_NODE":"304.8695","TLE_LINE1":"1 45549U 20025U   22033.88252812  .00052275  00000-0  17947-3 0  9994","DECAY_DATE":null,"FILE":"3290513","SEMIMAJOR_AXIS":"6682.810","INCLINATION":"53.0494","OBJECT_TYPE":"PAYLOAD"},{"NORAD_CAT_ID":"45550","EPHEMERIS_TYPE":"0","RA_OF_ASC_NODE":"342.6385","REV_AT_EPOCH":"9959","MEAN_ELEMENT_THEORY":"SGP4","GP_ID":"195189511","FILE":"3290513","DECAY_DATE":null,"TLE_LINE1":"1 45550U 20025V   22033.64390322  .00000435  00000-0  48129-4 0  9997","OBJECT_TYPE":"PAYLOAD","SEMIMAJOR_AXIS":"6925.378","INCLINATION":"53.0552","TLE_LINE2":"2 45550  53.0552 342.6385 0001471  76.8638 283.2515 15.06390487 99594","RCS_SIZE":"LARGE","MEAN_MOTION":"15.06390487","ECCENTRICITY":"0.00014710","MEAN_MOTION_DDOT":"0.0000000000000","COUNTRY_CODE":"US","CENTER_NAME":"EARTH","ARG_OF_PERICENTER":"76.8638","LAUNCH_DATE":"2020-04-22","SITE":"AFETR","PERIAPSIS":"546.224","TIME_SYSTEM":"UTC","EPOCH":"2022-02-02T15:27:13.238208","OBJECT_NAME":"STARLINK-1390","OBJECT_ID":"2020-025V","MEAN_MOTION_DOT":"0.00000435","BSTAR":"0.00004812900000","MEAN_ANOMALY":"283.2515","ELEMENT_SET_NO":"999","APOAPSIS":"548.261","REF_FRAME":"TEME","PERIOD":"95.593","CLASSIFICATION_TYPE":"U"},{"NORAD_CAT_ID":"45551","EPHEMERIS_TYPE":"0","GP_ID":"195160321","MEAN_ELEMENT_THEORY":"SGP4","REV_AT_EPOCH":"9986","RA_OF_ASC_NODE":"323.2147","TLE_LINE1":"1 45551U 20025W   22033.51399097  .00003310  00000-0  24092-3 0  9999","DECAY_DATE":null,"FILE":"3290262","INCLINATION":"53.0540","SEMIMAJOR_AXIS":"6925.318","OBJECT_TYPE":"PAYLOAD","COUNTRY_CODE":"US","MEAN_MOTION_DDOT":"0.0000000000000","ECCENTRICITY":"0.00016390","MEAN_MOTION":"15.06409962","RCS_SIZE":"LARGE","TLE_LINE2":"2 45551  53.0540 323.2147 0001639  70.8697 289.2469 15.06409962 99861","LAUNCH_DATE":"2020-04-22","ARG_OF_PERICENTER":"70.8697","CENTER_NAME":"EARTH","MEAN_MOTION_DOT":"0.00003310","BSTAR":"0.00024092000000","MEAN_ANOMALY":"289.2469","OBJECT_NAME":"STARLINK-1294","OBJECT_ID":"2020-025W","EPOCH":"2022-02-02T12:20:08.819808","TIME_SYSTEM":"UTC","PERIAPSIS":"546.048","SITE":"AFETR","CLASSIFICATION_TYPE":"U","PERIOD":"95.592","REF_FRAME":"TEME","APOAPSIS":"548.318","ELEMENT_SET_NO":"999"},{"TLE_LINE1":"1 45552U 20025X   22033.71712960  .00061203  00000-0  12387-2 0  9998","DECAY_DATE":null,"FILE":"3290513","OBJECT_TYPE":"PAYLOAD","SEMIMAJOR_AXIS":"6806.943","INCLINATION":"53.0557","EPHEMERIS_TYPE":"0","NORAD_CAT_ID":"45552","REV_AT_EPOCH":"10029","RA_OF_ASC_NODE":"293.5479","GP_ID":"195191012","MEAN_ELEMENT_THEORY":"SGP4","PERIAPSIS":"427.024","SITE":"AFETR","MEAN_ANOMALY":"227.6447","MEAN_MOTION_DOT":"0.00061203","BSTAR":"0.00123870000000","OBJECT_NAME":"STARLINK-1322","OBJECT_ID":"2020-025X","EPOCH":"2022-02-02T17:12:39.997440","TIME_SYSTEM":"UTC","PERIOD":"93.151","REF_FRAME":"TEME","APOAPSIS":"430.591","ELEMENT_SET_NO":"999","CLASSIFICATION_TYPE":"U","TLE_LINE2":"2 45552  53.0557 293.5479 0002620 132.4781 227.6447 15.45875809100299","RCS_SIZE":"LARGE","COUNTRY_CODE":"US","MEAN_MOTION_DDOT":"0.0000000000000","ECCENTRICITY":"0.00026200","MEAN_MOTION":"15.45875809","CENTER_NAME":"EARTH","LAUNCH_DATE":"2020-04-22","ARG_OF_PERICENTER":"132.4781"},{"SITE":"AFETR","PERIAPSIS":"545.998","TIME_SYSTEM":"UTC","EPOCH":"2022-02-02T12:36:04.756320","MEAN_MOTION_DOT":"0.00004674","BSTAR":"0.00033250000000","MEAN_ANOMALY":"299.9086","OBJECT_NAME":"STARLINK-1323","OBJECT_ID":"2020-025Y","APOAPSIS":"548.432","ELEMENT_SET_NO":"999","PERIOD":"95.592","REF_FRAME":"TEME","CLASSIFICATION_TYPE":"U","TLE_LINE2":"2 45553  53.0534 323.1744 0001757  60.2077 299.9086 15.06399592 99268","RCS_SIZE":"LARGE","ECCENTRICITY":"0.00017570","MEAN_MOTION":"15.06399592","COUNTRY_CODE":"US","MEAN_MOTION_DDOT":"0.0000000000000","CENTER_NAME":"EARTH","LAUNCH_DATE":"2020-04-22","ARG_OF_PERICENTER":"60.2077","FILE":"3290289","TLE_LINE1":"1 45553U 20025Y   22033.52505505  .00004674  00000-0  33250-3 0  9995","DECAY_DATE":null,"OBJECT_TYPE":"PAYLOAD","INCLINATION":"53.0534","SEMIMAJOR_AXIS":"6925.350","EPHEMERIS_TYPE":"0","NORAD_CAT_ID":"45553","RA_OF_ASC_NODE":"323.1744","REV_AT_EPOCH":"9926","MEAN_ELEMENT_THEORY":"SGP4","GP_ID":"195166141"},{"SITE":"AFETR","PERIAPSIS":"546.132","TIME_SYSTEM":"UTC","EPOCH":"2022-02-02T18:47:37.809600","OBJECT_NAME":"STARLINK-1325","OBJECT_ID":"2020-025Z","MEAN_ANOMALY":"300.0517","MEAN_MOTION_DOT":"-0.00000037","BSTAR":"0.00001642900000","ELEMENT_SET_NO":"999","APOAPSIS":"548.384","REF_FRAME":"TEME","PERIOD":"95.593","CLASSIFICATION_TYPE":"U","TLE_LINE2":"2 45554  53.0544 322.0047 0001626  60.0633 300.0517 15.06385502 99905","RCS_SIZE":"LARGE","MEAN_MOTION":"15.06385502","ECCENTRICITY":"0.00016260","MEAN_MOTION_DDOT":"0.0000000000000","COUNTRY_CODE":"US","CENTER_NAME":"EARTH","ARG_OF_PERICENTER":"60.0633","LAUNCH_DATE":"2020-04-22","FILE":"3290513","DECAY_DATE":null,"TLE_LINE1":"1 45554U 20025Z   22033.78307650 -.00000037  00000-0  16429-4 0  9995","OBJECT_TYPE":"PAYLOAD","INCLINATION":"53.0544","SEMIMAJOR_AXIS":"6925.393","EPHEMERIS_TYPE":"0","NORAD_CAT_ID":"45554","RA_OF_ASC_NODE":"322.0047","REV_AT_EPOCH":"9990","MEAN_ELEMENT_THEORY":"SGP4","GP_ID":"195190011"},{"CLASSIFICATION_TYPE":"U","REF_FRAME":"TEME","PERIOD":"95.593","ELEMENT_SET_NO":"999","APOAPSIS":"548.382","OBJECT_ID":"2020-025AA","OBJECT_NAME":"STARLINK-1327","MEAN_MOTION_DOT":"0.00000237","MEAN_ANOMALY":"288.7043","BSTAR":"0.00003482400000","EPOCH":"2022-02-02T21:05:37.576896","TIME_SYSTEM":"UTC","PERIAPSIS":"546.112","SITE":"AFETR","ARG_OF_PERICENTER":"71.4124","LAUNCH_DATE":"2020-04-22","CENTER_NAME":"EARTH","MEAN_MOTION_DDOT":"0.0000000000000","COUNTRY_CODE":"US","MEAN_MOTION":"15.06389168","ECCENTRICITY":"0.00016390","TLE_LINE2":"2 45555  53.0538 321.5742 0001639  71.4124 288.7043 15.06389168 99919","RCS_SIZE":"LARGE","INCLINATION":"53.0538","SEMIMAJOR_AXIS":"6925.382","OBJECT_TYPE":"PAYLOAD","DECAY_DATE":null,"TLE_LINE1":"1 45555U 20025AA  22033.87890714  .00000237  00000-0  34824-4 0  9994","FILE":"3290513","GP_ID":"195190261","MEAN_ELEMENT_THEORY":"SGP4","REV_AT_EPOCH":"9991","RA_OF_ASC_NODE":"321.5742","NORAD_CAT_ID":"45555","EPHEMERIS_TYPE":"0"},{"ARG_OF_PERICENTER":"68.4520","LAUNCH_DATE":"2020-04-22","CENTER_NAME":"EARTH","MEAN_MOTION":"15.06381093","ECCENTRICITY":"0.00018660","MEAN_MOTION_DDOT":"0.0000000000000","COUNTRY_CODE":"US","TLE_LINE2":"2 45556  53.0551 323.1902 0001866  68.4520 291.6668 15.06381093 99262","RCS_SIZE":"LARGE","CLASSIFICATION_TYPE":"U","ELEMENT_SET_NO":"999","APOAPSIS":"548.564","REF_FRAME":"TEME","PERIOD":"95.593","TIME_SYSTEM":"UTC","EPOCH":"2022-02-02T12:30:46.628928","OBJECT_ID":"2020-025AB","OBJECT_NAME":"STARLINK-1334","MEAN_MOTION_DOT":"-0.00002904","BSTAR":"-0.00017618000000","MEAN_ANOMALY":"291.6668","SITE":"AFETR","PERIAPSIS":"545.979","MEAN_ELEMENT_THEORY":"SGP4","GP_ID":"195166741","RA_OF_ASC_NODE":"323.1902","REV_AT_EPOCH":"9926","NORAD_CAT_ID":"45556","EPHEMERIS_TYPE":"0","SEMIMAJOR_AXIS":"6925.407","INCLINATION":"53.0551","OBJECT_TYPE":"PAYLOAD","FILE":"3290307","DECAY_DATE":null,"TLE_LINE1":"1 45556U 20025AB  22033.52137302 -.00002904  00000-0 -17618-3 0  9990"},{"EPHEMERIS_TYPE":"0","NORAD_CAT_ID":"45557","REV_AT_EPOCH":"9926","RA_OF_ASC_NODE":"323.1433","GP_ID":"195167023","MEAN_ELEMENT_THEORY":"SGP4","DECAY_DATE":null,"TLE_LINE1":"1 45557U 20025AC  22033.52873826  .00003646  00000-0  26354-3 0  9998","FILE":"3290324","OBJECT_TYPE":"PAYLOAD","SEMIMAJOR_AXIS":"6925.343","INCLINATION":"53.0534","RCS_SIZE":"LARGE","TLE_LINE2":"2 45557  53.0534 323.1433 0001669  75.4309 284.6865 15.06401763 99265","MEAN_MOTION_DDOT":"0.0000000000000","COUNTRY_CODE":"US","MEAN_MOTION":"15.06401763","ECCENTRICITY":"0.00016690","CENTER_NAME":"EARTH","ARG_OF_PERICENTER":"75.4309","LAUNCH_DATE":"2020-04-22","PERIAPSIS":"546.052","SITE":"AFETR","OBJECT_NAME":"STARLINK-1336","OBJECT_ID":"2020-025AC","BSTAR":"0.00026354000000","MEAN_MOTION_DOT":"0.00003646","MEAN_ANOMALY":"284.6865","EPOCH":"2022-02-02T12:41:22.985664","TIME_SYSTEM":"UTC","REF_FRAME":"TEME","PERIOD":"95.592","ELEMENT_SET_NO":"999","APOAPSIS":"548.364","CLASSIFICATION_TYPE":"U"}];
